ONEWEB-0387             
1 49313U 21090AL  26145.86795564  .00000046  00000+0  81373-4 0  9995
2 49313  87.9167 278.9050 0002227 104.3795 255.7586 13.20772272226879
ONEWEB-0388             
1 49314U 21090AM  26145.96607482  .00000003  00000+0 -24145-4 0  9996
2 49314  87.9152 309.3996 0001921  92.0920 268.0433 13.19725575223489
ONEWEB-0389             
1 50469U 21132A   26146.10128787  .00000058  00000+0  11642-3 0  9995
2 50469  87.9154  10.2608 0002188  88.6737 271.4645 13.17650797215176
ONEWEB-0390             
1 50470U 21132B   26146.10297324  .00000035  00000+0  55763-4 0  9999
2 50470  87.9152  10.2609 0001686  91.0033 269.1292 13.17650739215174
ONEWEB-0391             
1 50471U 21132C   26146.10466039  .00000051  00000+0  99016-4 0  9998
2 50471  87.9153  10.2703 0002452 100.3634 259.7775 13.17650701215174
ONEWEB-0392             
1 50472U 21132D   26146.13504896  .00000096  00000+0  21504-3 0  9991
2 50472  87.9161  10.2309 0002156  90.6657 269.4722 13.17649572215212
ONEWEB-0393             
1 50473U 21132E   26146.11057506  .00000058  00000+0  11595-3 0  9998
2 50473  87.9155  10.2546 0001994  86.9335 273.2025 13.17648970215208
ONEWEB-0394             
1 50474U 21132F   26146.24567673  .00000078  00000+0  16557-3 0  9999
2 50474  87.9169 339.8080 0002067  89.1023 271.0346 13.18689034218705
ONEWEB-0395             
1 50475U 21132G   26146.19358096  .00000611  00000+0  16868-2 0  9998
2 50475  87.8904  25.4443 0001793  89.3895 270.7438 13.11415912212838
ONEWEB-0396             
1 50476U 21132H   26146.08717842  .00000050  00000+0  95104-4 0  9994
2 50476  87.9169 339.8525 0002013  88.4983 271.6380 13.18688721218727
ONEWEB-0397             
1 50477U 21132J   26146.25410847  .00000055  00000+0  10552-3 0  9997
2 50477  87.9167 339.8192 0002046  85.0068 275.1298 13.18688112218720
ONEWEB-0398             
1 50478U 21132K   26146.16135264 -.00000277  00000+0 -81732-3 0  9991
2 50478  87.8918  25.4390 0001623  90.4801 269.6513 13.11418622212729
ONEWEB-0399             
1 50479U 21132L   26146.14778624 -.00000445  00000+0 -12913-2 0  9994
2 50479  87.8915  25.4523 0002283  83.6209 276.5179 13.11415514212715
ONEWEB-0400             
1 50480U 21132M   26146.23217360 -.00000012  00000+0 -62565-4 0  9991
2 50480  87.9169 339.8135 0001721  93.7494 266.3835 13.18688730218715
ONEWEB-0401             
1 50481U 21132N   26146.27771593  .00000051  00000+0  96043-4 0  9998
2 50481  87.9170 339.8013 0001850  81.2260 278.9082 13.18687576218720
ONEWEB-0402             
1 50482U 21132P   26146.24063742  .00000025  00000+0  31254-4 0  9990
2 50482  87.9167 339.7985 0002009  75.1541 284.9813 13.18688322218746
