[{"OBJECT_NAME":"ONEWEB-0387","OBJECT_ID":"2021-090AL","EPOCH":"2026-05-25T20:49:51.367296","MEAN_MOTION":13.20772272,"ECCENTRICITY":0.0002227,"INCLINATION":87.9167,"RA_OF_ASC_NODE":278.905,"ARG_OF_PERICENTER":104.3795,"MEAN_ANOMALY":255.7586,"EPHEMERIS_TYPE":0,"CLASSIFICATION_TYPE":"U","NORAD_CAT_ID":49313,"ELEMENT_SET_NO":999,"REV_AT_EPOCH":22687,"BSTAR":8.1373e-05,"MEAN_MOTION_DOT":4.6e-07,"MEAN_MOTION_DDOT":0.0},{"OBJECT_NAME":"ONEWEB-0388","OBJECT_ID":"2021-090AM","EPOCH":"2026-05-25T23:11:08.864448","MEAN_MOTION":13.19725575,"ECCENTRICITY":0.0001921,"INCLINATION":87.9152,"RA_OF_ASC_NODE":309.3996,"ARG_OF_PERICENTER":92.092,"MEAN_ANOMALY":268.0433,"EPHEMERIS_TYPE":0,"CLASSIFICATION_TYPE":"U","NORAD_CAT_ID":49314,"ELEMENT_SET_NO":999,"REV_AT_EPOCH":22348,"BSTAR":-2.4145e-05,"MEAN_MOTION_DOT":3e-08,"MEAN_MOTION_DDOT":0.0},{"OBJECT_NAME":"ONEWEB-0389","OBJECT_ID":"2021-132A","EPOCH":"2026-05-26T02:25:51.271968","MEAN_MOTION":13.17650797,"ECCENTRICITY":0.0002188,"INCLINATION":87.9154,"RA_OF_ASC_NODE":10.2608,"ARG_OF_PERICENTER":88.6737,"MEAN_ANOMALY":271.4645,"EPHEMERIS_TYPE":0,"CLASSIFICATION_TYPE":"U","NORAD_CAT_ID":50469,"ELEMENT_SET_NO":999,"REV_AT_EPOCH":21517,"BSTAR":0.00011642,"MEAN_MOTION_DOT":5.8e-07,"MEAN_MOTION_DDOT":0.0},{"OBJECT_NAME":"ONEWEB-0390","OBJECT_ID":"2021-132B","EPOCH":"2026-05-26T02:28:16.887936","MEAN_MOTION":13.17650739,"ECCENTRICITY":0.0001686,"INCLINATION":87.9152,"RA_OF_ASC_NODE":10.2609,"ARG_OF_PERICENTER":91.0033,"MEAN_ANOMALY":269.1292,"EPHEMERIS_TYPE":0,"CLASSIFICATION_TYPE":"U","NORAD_CAT_ID":50470,"ELEMENT_SET_NO":999,"REV_AT_EPOCH":21517,"BSTAR":5.5763e-05,"MEAN_MOTION_DOT":3.5e-07,"MEAN_MOTION_DDOT":0.0},{"OBJECT_NAME":"ONEWEB-0391","OBJECT_ID":"2021-132C","EPOCH":"2026-05-26T02:30:42.657696","MEAN_MOTION":13.17650701,"ECCENTRICITY":0.0002452,"INCLINATION":87.9153,"RA_OF_ASC_NODE":10.2703,"ARG_OF_PERICENTER":100.3634,"MEAN_ANOMALY":259.7775,"EPHEMERIS_TYPE":0,"CLASSIFICATION_TYPE":"U","NORAD_CAT_ID":50471,"ELEMENT_SET_NO":999,"REV_AT_EPOCH":21517,"BSTAR":9.9016e-05,"MEAN_MOTION_DOT":5.1e-07,"MEAN_MOTION_DDOT":0.0},{"OBJECT_NAME":"ONEWEB-0392","OBJECT_ID":"2021-132D","EPOCH":"2026-05-26T03:14:28.230144","MEAN_MOTION":13.17649572,"ECCENTRICITY":0.0002156,"INCLINATION":87.9161,"RA_OF_ASC_NODE":10.2309,"ARG_OF_PERICENTER":90.6657,"MEAN_ANOMALY":269.4722,"EPHEMERIS_TYPE":0,"CLASSIFICATION_TYPE":"U","NORAD_CAT_ID":50472,"ELEMENT_SET_NO":999,"REV_AT_EPOCH":21521,"BSTAR":0.00021504,"MEAN_MOTION_DOT":9.6e-07,"MEAN_MOTION_DDOT":0.0},{"OBJECT_NAME":"ONEWEB-0393","OBJECT_ID":"2021-132E","EPOCH":"2026-05-26T02:39:13.685184","MEAN_MOTION":13.1764897,"ECCENTRICITY":0.0001994,"INCLINATION":87.9155,"RA_OF_ASC_NODE":10.2546,"ARG_OF_PERICENTER":86.9335,"MEAN_ANOMALY":273.2025,"EPHEMERIS_TYPE":0,"CLASSIFICATION_TYPE":"U","NORAD_CAT_ID":50473,"ELEMENT_SET_NO":999,"REV_AT_EPOCH":21520,"BSTAR":0.00011595,"MEAN_MOTION_DOT":5.8e-07,"MEAN_MOTION_DDOT":0.0},{"OBJECT_NAME":"ONEWEB-0394","OBJECT_ID":"2021-132F","EPOCH":"2026-05-26T05:53:46.469472","MEAN_MOTION":13.18689034,"ECCENTRICITY":0.0002067,"INCLINATION":87.9169,"RA_OF_ASC_NODE":339.808,"ARG_OF_PERICENTER":89.1023,"MEAN_ANOMALY":271.0346,"EPHEMERIS_TYPE":0,"CLASSIFICATION_TYPE":"U","NORAD_CAT_ID":50474,"ELEMENT_SET_NO":999,"REV_AT_EPOCH":21870,"BSTAR":0.00016557,"MEAN_MOTION_DOT":7.8e-07,"MEAN_MOTION_DDOT":0.0},{"OBJECT_NAME":"ONEWEB-0395","OBJECT_ID":"2021-132G","EPOCH":"2026-05-26T04:38:45.394944","MEAN_MOTION":13.11415912,"ECCENTRICITY":0.0001793,"INCLINATION":87.8904,"RA_OF_ASC_NODE":25.4443,"ARG_OF_PERICENTER":89.3895,"MEAN_ANOMALY":270.7438,"EPHEMERIS_TYPE":0,"CLASSIFICATION_TYPE":"U","NORAD_CAT_ID":50475,"ELEMENT_SET_NO":999,"REV_AT_EPOCH":21283,"BSTAR":0.0016868,"MEAN_MOTION_DOT":6.11e-06,"MEAN_MOTION_DDOT":0.0},{"OBJECT_NAME":"ONEWEB-0396","OBJECT_ID":"2021-132H","EPOCH":"2026-05-26T02:05:32.215488","MEAN_MOTION":13.18688721,"ECCENTRICITY":0.0002013,"INCLINATION":87.9169,"RA_OF_ASC_NODE":339.8525,"ARG_OF_PERICENTER":88.4983,"MEAN_ANOMALY":271.638,"EPHEMERIS_TYPE":0,"CLASSIFICATION_TYPE":"U","NORAD_CAT_ID":50476,"ELEMENT_SET_NO":999,"REV_AT_EPOCH":21872,"BSTAR":9.5104e-05,"MEAN_MOTION_DOT":5e-07,"MEAN_MOTION_DDOT":0.0},{"OBJECT_NAME":"ONEWEB-0397","OBJECT_ID":"2021-132J","EPOCH":"2026-05-26T06:05:54.971808","MEAN_MOTION":13.18688112,"ECCENTRICITY":0.0002046,"INCLINATION":87.9167,"RA_OF_ASC_NODE":339.8192,"ARG_OF_PERICENTER":85.0068,"MEAN_ANOMALY":275.1298,"EPHEMERIS_TYPE":0,"CLASSIFICATION_TYPE":"U","NORAD_CAT_ID":50477,"ELEMENT_SET_NO":999,"REV_AT_EPOCH":21872,"BSTAR":0.00010552,"MEAN_MOTION_DOT":5.5e-07,"MEAN_MOTION_DDOT":0.0},{"OBJECT_NAME":"ONEWEB-0398","OBJECT_ID":"2021-132K","EPOCH":"2026-05-26T03:52:20.868096","MEAN_MOTION":13.11418622,"ECCENTRICITY":0.0001623,"INCLINATION":87.8918,"RA_OF_ASC_NODE":25.439,"ARG_OF_PERICENTER":90.4801,"MEAN_ANOMALY":269.6513,"EPHEMERIS_TYPE":0,"CLASSIFICATION_TYPE":"U","NORAD_CAT_ID":50478,"ELEMENT_SET_NO":999,"REV_AT_EPOCH":21272,"BSTAR":-0.0008173200000000001,"MEAN_MOTION_DOT":-2.77e-06,"MEAN_MOTION_DDOT":0.0},{"OBJECT_NAME":"ONEWEB-0399","OBJECT_ID":"2021-132L","EPOCH":"2026-05-26T03:32:48.731136","MEAN_MOTION":13.11415514,"ECCENTRICITY":0.0002283,"INCLINATION":87.8915,"RA_OF_ASC_NODE":25.4523,"ARG_OF_PERICENTER":83.6209,"MEAN_ANOMALY":276.5179,"EPHEMERIS_TYPE":0,"CLASSIFICATION_TYPE":"U","NORAD_CAT_ID":50479,"ELEMENT_SET_NO":999,"REV_AT_EPOCH":21271,"BSTAR":-0.0012913,"MEAN_MOTION_DOT":-4.45e-06,"MEAN_MOTION_DDOT":0.0},{"OBJECT_NAME":"ONEWEB-0400","OBJECT_ID":"2021-132M","EPOCH":"2026-05-26T05:34:19.799040","MEAN_MOTION":13.1868873,"ECCENTRICITY":0.0001721,"INCLINATION":87.9169,"RA_OF_ASC_NODE":339.8135,"ARG_OF_PERICENTER":93.7494,"MEAN_ANOMALY":266.3835,"EPHEMERIS_TYPE":0,"CLASSIFICATION_TYPE":"U","NORAD_CAT_ID":50480,"ELEMENT_SET_NO":999,"REV_AT_EPOCH":21871,"BSTAR":-6.256500000000001e-05,"MEAN_MOTION_DOT":-1.2e-07,"MEAN_MOTION_DDOT":0.0},{"OBJECT_NAME":"ONEWEB-0401","OBJECT_ID":"2021-132N","EPOCH":"2026-05-26T06:39:54.656352","MEAN_MOTION":13.18687576,"ECCENTRICITY":0.000185,"INCLINATION":87.917,"RA_OF_ASC_NODE":339.8013,"ARG_OF_PERICENTER":81.226,"MEAN_ANOMALY":278.9082,"EPHEMERIS_TYPE":0,"CLASSIFICATION_TYPE":"U","NORAD_CAT_ID":50481,"ELEMENT_SET_NO":999,"REV_AT_EPOCH":21872,"BSTAR":9.6043e-05,"MEAN_MOTION_DOT":5.1e-07,"MEAN_MOTION_DDOT":0.0},{"OBJECT_NAME":"ONEWEB-0402","OBJECT_ID":"2021-132P","EPOCH":"2026-05-26T05:46:31.073088","MEAN_MOTION":13.18688322,"ECCENTRICITY":0.0002009,"INCLINATION":87.9167,"RA_OF_ASC_NODE":339.7985,"ARG_OF_PERICENTER":75.1541,"MEAN_ANOMALY":284.9813,"EPHEMERIS_TYPE":0,"CLASSIFICATION_TYPE":"U","NORAD_CAT_ID":50482,"ELEMENT_SET_NO":999,"REV_AT_EPOCH":21874,"BSTAR":3.1254e-05,"MEAN_MOTION_DOT":2.5e-07,"MEAN_MOTION_DDOT":0.0}]